{
    "week": 296,
    "satellites": [
        {
            "Name": "BEIDOU-3 M13 (C32)",
            "Line1": "1 43622U 18072A   24343.78793048 -.00000016  00000+0  00000+0 0  9993",
            "Line2": "2 43622  56.1381  81.0635 0005649 290.2157  69.7290  1.86230903 42311",
            "SatelliteNumber": "43622",
            "Classification": "U",
            "LaunchYear": "18",
            "LaunchNumber": "072",
            "PieceOfLaunch": "A",
            "EpochYear": "24",
            "EpochDay": 343.78793048,
            "FirstDerivativeMeanMotion": -1.6e-07,
            "SecondDerivativeMeanMotion": "00000+0",
            "BSTAR": "00000+0",
            "SetNumber": "999",
            "Inclination": 56.1381,
            "RAAN": 81.0635,
            "Eccentricity": 0.0005649,
            "ArgumentOfPerigee": 290.2157,
            "MeanAnomaly": 69.729,
            "MeanMotion": 1.86230903,
            "RevolutionNumber": "4231"
        },
        {
            "Name": "BEIDOU-3 M14 (C33)",
            "Line1": "1 43623U 18072B   24343.65340128 -.00000015  00000+0  00000+0 0  9996",
            "Line2": "2 43623  56.1399  81.0615 0002950 323.5363  36.4494  1.86230867 42305",
            "SatelliteNumber": "43623",
            "Classification": "U",
            "LaunchYear": "18",
            "LaunchNumber": "072",
            "PieceOfLaunch": "B",
            "EpochYear": "24",
            "EpochDay": 343.65340128,
            "FirstDerivativeMeanMotion": -1.5e-07,
            "SecondDerivativeMeanMotion": "00000+0",
            "BSTAR": "00000+0",
            "SetNumber": "999",
            "Inclination": 56.1399,
            "RAAN": 81.0615,
            "Eccentricity": 0.000295,
            "ArgumentOfPerigee": 323.5363,
            "MeanAnomaly": 36.4494,
            "MeanMotion": 1.86230867,
            "RevolutionNumber": "4230"
        },
        {
            "Name": "BEIDOU-3 M16 (C35)",
            "Line1": "1 43647U 18078A   24343.27800636 -.00000054  00000+0  00000+0 0  9994",
            "Line2": "2 43647  54.5806 319.3967 0007027   8.1075 351.9060  1.86232123 41815",
            "SatelliteNumber": "43647",
            "Classification": "U",
            "LaunchYear": "18",
            "LaunchNumber": "078",
            "PieceOfLaunch": "A",
            "EpochYear": "24",
            "EpochDay": 343.27800636,
            "FirstDerivativeMeanMotion": -5.4e-07,
            "SecondDerivativeMeanMotion": "00000+0",
            "BSTAR": "00000+0",
            "SetNumber": "999",
            "Inclination": 54.5806,
            "RAAN": 319.3967,
            "Eccentricity": 0.0007027,
            "ArgumentOfPerigee": 8.1075,
            "MeanAnomaly": 351.906,
            "MeanMotion": 1.86232123,
            "RevolutionNumber": "4181"
        },
        {
            "Name": "BEIDOU-3 M15 (C34)",
            "Line1": "1 43648U 18078B   24343.40715090 -.00000055  00000+0  00000+0 0  9990",
            "Line2": "2 43648  54.5763 319.3944 0003764   4.8198 355.1859  1.86231993 41834",
            "SatelliteNumber": "43648",
            "Classification": "U",
            "LaunchYear": "18",
            "LaunchNumber": "078",
            "PieceOfLaunch": "B",
            "EpochYear": "24",
            "EpochDay": 343.4071509,
            "FirstDerivativeMeanMotion": -5.5e-07,
            "SecondDerivativeMeanMotion": "00000+0",
            "BSTAR": "00000+0",
            "SetNumber": "999",
            "Inclination": 54.5763,
            "RAAN": 319.3944,
            "Eccentricity": 0.0003764,
            "ArgumentOfPerigee": 4.8198,
            "MeanAnomaly": 355.1859,
            "MeanMotion": 1.86231993,
            "RevolutionNumber": "4183"
        },
        {
            "Name": "BEIDOU-3 G1 (C59)",
            "Line1": "1 43683U 18085A   24343.97716958 -.00000261  00000+0  00000+0 0  9992",
            "Line2": "2 43683   2.6245 103.4637 0001807  61.1039  45.4085  1.00275646 22488",
            "SatelliteNumber": "43683",
            "Classification": "U",
            "LaunchYear": "18",
            "LaunchNumber": "085",
            "PieceOfLaunch": "A",
            "EpochYear": "24",
            "EpochDay": 343.97716958,
            "FirstDerivativeMeanMotion": -2.61e-06,
            "SecondDerivativeMeanMotion": "00000+0",
            "BSTAR": "00000+0",
            "SetNumber": "999",
            "Inclination": 2.6245,
            "RAAN": 103.4637,
            "Eccentricity": 0.0001807,
            "ArgumentOfPerigee": 61.1039,
            "MeanAnomaly": 45.4085,
            "MeanMotion": 1.00275646,
            "RevolutionNumber": "2248"
        },
        {
            "Name": "BEIDOU-3 M17 (C36)",
            "Line1": "1 43706U 18093A   24343.02310436  .00000082  00000+0  00000+0 0  9994",
            "Line2": "2 43706  54.1965 201.1687 0006502 299.6495  60.3678  1.86228198 41183",
            "SatelliteNumber": "43706",
            "Classification": "U",
            "LaunchYear": "18",
            "LaunchNumber": "093",
            "PieceOfLaunch": "A",
            "EpochYear": "24",
            "EpochDay": 343.02310436,
            "FirstDerivativeMeanMotion": 8.2e-07,
            "SecondDerivativeMeanMotion": "00000+0",
            "BSTAR": "00000+0",
            "SetNumber": "999",
            "Inclination": 54.1965,
            "RAAN": 201.1687,
            "Eccentricity": 0.0006502,
            "ArgumentOfPerigee": 299.6495,
            "MeanAnomaly": 60.3678,
            "MeanMotion": 1.86228198,
            "RevolutionNumber": "4118"
        },
        {
            "Name": "BEIDOU-3 M18 (C37)",
            "Line1": "1 43707U 18093B   24342.35006855  .00000079  00000+0  00000+0 0  9993",
            "Line2": "2 43707  54.1972 201.1834 0006321 341.1439  18.9159  1.86229743 41164",
            "SatelliteNumber": "43707",
            "Classification": "U",
            "LaunchYear": "18",
            "LaunchNumber": "093",
            "PieceOfLaunch": "B",
            "EpochYear": "24",
            "EpochDay": 342.35006855,
            "FirstDerivativeMeanMotion": 7.9e-07,
            "SecondDerivativeMeanMotion": "00000+0",
            "BSTAR": "00000+0",
            "SetNumber": "999",
            "Inclination": 54.1972,
            "RAAN": 201.1834,
            "Eccentricity": 0.0006321,
            "ArgumentOfPerigee": 341.1439,
            "MeanAnomaly": 18.9159,
            "MeanMotion": 1.86229743,
            "RevolutionNumber": "4116"
        },
        {
            "Name": "BEIDOU-3 IGSO-1 (C38)",
            "Line1": "1 44204U 19023A   24343.73514140 -.00000223  00000+0  00000+0 0  9996",
            "Line2": "2 44204  57.8983  43.4038 0025030 212.8920 201.6175  1.00248996  1644",
            "SatelliteNumber": "44204",
            "Classification": "U",
            "LaunchYear": "19",
            "LaunchNumber": "023",
            "PieceOfLaunch": "A",
            "EpochYear": "24",
            "EpochDay": 343.7351414,
            "FirstDerivativeMeanMotion": -2.23e-06,
            "SecondDerivativeMeanMotion": "00000+0",
            "BSTAR": "00000+0",
            "SetNumber": "999",
            "Inclination": 57.8983,
            "RAAN": 43.4038,
            "Eccentricity": 0.002503,
            "ArgumentOfPerigee": 212.892,
            "MeanAnomaly": 201.6175,
            "MeanMotion": 1.00248996,
            "RevolutionNumber": "164"
        },
        {
            "Name": "BEIDOU-2 G8 (C01)",
            "Line1": "1 44231U 19027A   24343.90662257 -.00000231  00000+0  00000+0 0  9991",
            "Line2": "2 44231   1.9112  74.7674 0004724 198.4570 275.8814  1.00272754 20517",
            "SatelliteNumber": "44231",
            "Classification": "U",
            "LaunchYear": "19",
            "LaunchNumber": "027",
            "PieceOfLaunch": "A",
            "EpochYear": "24",
            "EpochDay": 343.90662257,
            "FirstDerivativeMeanMotion": -2.31e-06,
            "SecondDerivativeMeanMotion": "00000+0",
            "BSTAR": "00000+0",
            "SetNumber": "999",
            "Inclination": 1.9112,
            "RAAN": 74.7674,
            "Eccentricity": 0.0004724,
            "ArgumentOfPerigee": 198.457,
            "MeanAnomaly": 275.8814,
            "MeanMotion": 1.00272754,
            "RevolutionNumber": "2051"
        },
        {
            "Name": "BEIDOU-3 IGSO-2 (C39)",
            "Line1": "1 44337U 19035A   24343.90158350 -.00000045  00000+0  00000+0 0  9994",
            "Line2": "2 44337  55.1912 163.7364 0035463 196.3680 160.0888  1.00284826 20093",
            "SatelliteNumber": "44337",
            "Classification": "U",
            "LaunchYear": "19",
            "LaunchNumber": "035",
            "PieceOfLaunch": "A",
            "EpochYear": "24",
            "EpochDay": 343.9015835,
            "FirstDerivativeMeanMotion": -4.5e-07,
            "SecondDerivativeMeanMotion": "00000+0",
            "BSTAR": "00000+0",
            "SetNumber": "999",
            "Inclination": 55.1912,
            "RAAN": 163.7364,
            "Eccentricity": 0.0035463,
            "ArgumentOfPerigee": 196.368,
            "MeanAnomaly": 160.0888,
            "MeanMotion": 1.00284826,
            "RevolutionNumber": "2009"
        }
    ]
}